[{"OBJECT_NAME":"ONEWEB-0546","OBJECT_ID":"2023-043C","EPOCH":"2025-11-12T06:43:34.527936","MEAN_MOTION":13.16593339,"ECCENTRICITY":0.00017278,"INCLINATION":87.9018,"RA_OF_ASC_NODE":271.9621,"ARG_OF_PERICENTER":60.7011,"MEAN_ANOMALY":299.4292,"EPHEMERIS_TYPE":0,"CLASSIFICATION_TYPE":"U","NORAD_CAT_ID":56048,"ELEMENT_SET_NO":999,"REV_AT_EPOCH":13042,"BSTAR":-0.00031734229,"MEAN_MOTION_DOT":-1.08e-6,"MEAN_MOTION_DDOT":0},{"OBJECT_NAME":"ONEWEB-0547","OBJECT_ID":"2023-043D","EPOCH":"2025-11-12T07:16:17.377824","MEAN_MOTION":13.21826045,"ECCENTRICITY":0.0002071,"INCLINATION":87.9185,"RA_OF_ASC_NODE":287.2368,"ARG_OF_PERICENTER":85.4524,"MEAN_ANOMALY":274.6847,"EPHEMERIS_TYPE":0,"CLASSIFICATION_TYPE":"U","NORAD_CAT_ID":56049,"ELEMENT_SET_NO":999,"REV_AT_EPOCH":12957,"BSTAR":-0.00014170486,"MEAN_MOTION_DOT":-4.5e-7,"MEAN_MOTION_DDOT":0},{"OBJECT_NAME":"ONEWEB-0548","OBJECT_ID":"2023-043E","EPOCH":"2025-11-12T07:19:00.141600","MEAN_MOTION":13.16664263,"ECCENTRICITY":0.00014848,"INCLINATION":87.9002,"RA_OF_ASC_NODE":271.9683,"ARG_OF_PERICENTER":91.1619,"MEAN_ANOMALY":268.9682,"EPHEMERIS_TYPE":0,"CLASSIFICATION_TYPE":"U","NORAD_CAT_ID":56050,"ELEMENT_SET_NO":999,"REV_AT_EPOCH":13042,"BSTAR":-0.027026687,"MEAN_MOTION_DOT":-0.00010318,"MEAN_MOTION_DDOT":0},{"OBJECT_NAME":"ONEWEB-0549","OBJECT_ID":"2023-043F","EPOCH":"2025-11-12T07:05:37.081248","MEAN_MOTION":13.21825207,"ECCENTRICITY":0.00021676,"INCLINATION":87.9179,"RA_OF_ASC_NODE":287.2533,"ARG_OF_PERICENTER":83.6573,"MEAN_ANOMALY":276.4807,"EPHEMERIS_TYPE":0,"CLASSIFICATION_TYPE":"U","NORAD_CAT_ID":56051,"ELEMENT_SET_NO":999,"REV_AT_EPOCH":12957,"BSTAR":0.00018293085,"MEAN_MOTION_DOT":8.9e-7,"MEAN_MOTION_DDOT":0},{"OBJECT_NAME":"ONEWEB-0550","OBJECT_ID":"2023-043G","EPOCH":"2025-11-12T06:46:40.567008","MEAN_MOTION":13.21826018,"ECCENTRICITY":0.00017506,"INCLINATION":87.9181,"RA_OF_ASC_NODE":287.251,"ARG_OF_PERICENTER":89.4914,"MEAN_ANOMALY":270.642,"EPHEMERIS_TYPE":0,"CLASSIFICATION_TYPE":"U","NORAD_CAT_ID":56052,"ELEMENT_SET_NO":999,"REV_AT_EPOCH":12957,"BSTAR":-0.00016412324,"MEAN_MOTION_DOT":-5.5e-7,"MEAN_MOTION_DDOT":0},{"OBJECT_NAME":"ONEWEB-0551","OBJECT_ID":"2023-043H","EPOCH":"2025-11-12T00:16:38.384832","MEAN_MOTION":13.15549427,"ECCENTRICITY":0.00020557,"INCLINATION":87.8954,"RA_OF_ASC_NODE":302.5719,"ARG_OF_PERICENTER":89.9193,"MEAN_ANOMALY":270.2173,"EPHEMERIS_TYPE":0,"CLASSIFICATION_TYPE":"U","NORAD_CAT_ID":56053,"ELEMENT_SET_NO":999,"REV_AT_EPOCH":12784,"BSTAR":-0.00031757069,"MEAN_MOTION_DOT":-1.07e-6,"MEAN_MOTION_DDOT":0},{"OBJECT_NAME":"ONEWEB-0552","OBJECT_ID":"2023-043J","EPOCH":"2025-11-11T23:23:33.261792","MEAN_MOTION":13.21819839,"ECCENTRICITY":0.0002084,"INCLINATION":87.9177,"RA_OF_ASC_NODE":287.321,"ARG_OF_PERICENTER":91.2191,"MEAN_ANOMALY":268.9182,"EPHEMERIS_TYPE":0,"CLASSIFICATION_TYPE":"U","NORAD_CAT_ID":56054,"ELEMENT_SET_NO":999,"REV_AT_EPOCH":12953,"BSTAR":0.0023452662,"MEAN_MOTION_DOT":9.82e-6,"MEAN_MOTION_DDOT":0},{"OBJECT_NAME":"ONEWEB-0553","OBJECT_ID":"2023-043K","EPOCH":"2025-11-12T06:52:41.602368","MEAN_MOTION":13.16596945,"ECCENTRICITY":0.00016191,"INCLINATION":87.9012,"RA_OF_ASC_NODE":271.9709,"ARG_OF_PERICENTER":72.1211,"MEAN_ANOMALY":288.0096,"EPHEMERIS_TYPE":0,"CLASSIFICATION_TYPE":"U","NORAD_CAT_ID":56055,"ELEMENT_SET_NO":999,"REV_AT_EPOCH":13043,"BSTAR":1.1229522e-5,"MEAN_MOTION_DOT":1.7e-7,"MEAN_MOTION_DDOT":0},{"OBJECT_NAME":"ONEWEB-0554","OBJECT_ID":"2023-043L","EPOCH":"2025-11-12T06:34:28.860096","MEAN_MOTION":13.16593853,"ECCENTRICITY":0.00016398,"INCLINATION":87.8999,"RA_OF_ASC_NODE":271.9913,"ARG_OF_PERICENTER":86.1338,"MEAN_ANOMALY":273.998,"EPHEMERIS_TYPE":0,"CLASSIFICATION_TYPE":"U","NORAD_CAT_ID":56056,"ELEMENT_SET_NO":999,"REV_AT_EPOCH":13041,"BSTAR":0.00020796655,"MEAN_MOTION_DOT":9.2e-7,"MEAN_MOTION_DDOT":0},{"OBJECT_NAME":"ONEWEB-0555","OBJECT_ID":"2023-043M","EPOCH":"2025-11-12T03:50:17.718720","MEAN_MOTION":13.16593369,"ECCENTRICITY":0.00015738,"INCLINATION":87.9004,"RA_OF_ASC_NODE":271.9909,"ARG_OF_PERICENTER":65.6609,"MEAN_ANOMALY":294.4686,"EPHEMERIS_TYPE":0,"CLASSIFICATION_TYPE":"U","NORAD_CAT_ID":56057,"ELEMENT_SET_NO":999,"REV_AT_EPOCH":13040,"BSTAR":-0.00050530661,"MEAN_MOTION_DOT":-1.8e-6,"MEAN_MOTION_DDOT":0},{"OBJECT_NAME":"ONEWEB-0557","OBJECT_ID":"2023-043N","EPOCH":"2025-11-12T06:00:16.668288","MEAN_MOTION":13.16593113,"ECCENTRICITY":6.059e-5,"INCLINATION":87.9007,"RA_OF_ASC_NODE":271.9866,"ARG_OF_PERICENTER":95.4132,"MEAN_ANOMALY":264.7068,"EPHEMERIS_TYPE":0,"CLASSIFICATION_TYPE":"U","NORAD_CAT_ID":56058,"ELEMENT_SET_NO":999,"REV_AT_EPOCH":13041,"BSTAR":0.00028926943,"MEAN_MOTION_DOT":1.23e-6,"MEAN_MOTION_DDOT":0},{"OBJECT_NAME":"ONEWEB-0558","OBJECT_ID":"2023-043P","EPOCH":"2025-11-11T23:14:03.782976","MEAN_MOTION":13.21825586,"ECCENTRICITY":0.00024219,"INCLINATION":87.9178,"RA_OF_ASC_NODE":287.3164,"ARG_OF_PERICENTER":81.9778,"MEAN_ANOMALY":278.1631,"EPHEMERIS_TYPE":0,"CLASSIFICATION_TYPE":"U","NORAD_CAT_ID":56059,"ELEMENT_SET_NO":999,"REV_AT_EPOCH":12954,"BSTAR":-0.00090719476,"MEAN_MOTION_DOT":-3.62e-6,"MEAN_MOTION_DDOT":0},{"OBJECT_NAME":"ONEWEB-0559","OBJECT_ID":"2023-043Q","EPOCH":"2025-11-11T21:08:29.849856","MEAN_MOTION":13.21824175,"ECCENTRICITY":0.0002143,"INCLINATION":87.9179,"RA_OF_ASC_NODE":287.3268,"ARG_OF_PERICENTER":89.8421,"MEAN_ANOMALY":270.2958,"EPHEMERIS_TYPE":0,"CLASSIFICATION_TYPE":"U","NORAD_CAT_ID":56060,"ELEMENT_SET_NO":999,"REV_AT_EPOCH":12954,"BSTAR":0.00016184267,"MEAN_MOTION_DOT":8.0e-7,"MEAN_MOTION_DDOT":0},{"OBJECT_NAME":"ONEWEB-0566","OBJECT_ID":"2023-043R","EPOCH":"2025-11-12T04:15:02.313504","MEAN_MOTION":13.21827213,"ECCENTRICITY":0.00022312,"INCLINATION":87.9173,"RA_OF_ASC_NODE":287.2653,"ARG_OF_PERICENTER":85.6681,"MEAN_ANOMALY":274.4708,"EPHEMERIS_TYPE":0,"CLASSIFICATION_TYPE":"U","NORAD_CAT_ID":56061,"ELEMENT_SET_NO":999,"REV_AT_EPOCH":12956,"BSTAR":8.1520981e-5,"MEAN_MOTION_DOT":4.7e-7,"MEAN_MOTION_DDOT":0},{"OBJECT_NAME":"ONEWEB-0568","OBJECT_ID":"2023-043S","EPOCH":"2025-11-12T06:25:20.368704","MEAN_MOTION":13.16596614,"ECCENTRICITY":0.00016809,"INCLINATION":87.9017,"RA_OF_ASC_NODE":271.9688,"ARG_OF_PERICENTER":72.4104,"MEAN_ANOMALY":287.721,"EPHEMERIS_TYPE":0,"CLASSIFICATION_TYPE":"U","NORAD_CAT_ID":56062,"ELEMENT_SET_NO":999,"REV_AT_EPOCH":13043,"BSTAR":0.00026300169,"MEAN_MOTION_DOT":1.13e-6,"MEAN_MOTION_DDOT":0},{"OBJECT_NAME":"ONEWEB-0574","OBJECT_ID":"2023-043T","EPOCH":"2025-11-11T15:22:30.485568","MEAN_MOTION":13.21827097,"ECCENTRICITY":0.00017128,"INCLINATION":87.9176,"RA_OF_ASC_NODE":287.3608,"ARG_OF_PERICENTER":88.0894,"MEAN_ANOMALY":272.0436,"EPHEMERIS_TYPE":0,"CLASSIFICATION_TYPE":"U","NORAD_CAT_ID":56063,"ELEMENT_SET_NO":999,"REV_AT_EPOCH":12953,"BSTAR":0.00028335551,"MEAN_MOTION_DOT":1.3e-6,"MEAN_MOTION_DDOT":0}]
