ONEWEB-0546             
1 56048U 23043C   25316.28026074 -.00000108  00000+0 -31734-3 0  9992
2 56048  87.9018 271.9621 0001727  60.7011 299.4292 13.16593339130428
ONEWEB-0547             
1 56049U 23043D   25316.30297891 -.00000045  00000+0 -14170-3 0  9998
2 56049  87.9185 287.2368 0002071  85.4524 274.6847 13.21826045129572
ONEWEB-0548             
1 56050U 23043E   25316.30486275 -.00010318  00000+0 -27027-1 0  9993
2 56050  87.9002 271.9683 0001484  91.1619 268.9682 13.16664263130423
ONEWEB-0549             
1 56051U 23043F   25316.29556807  .00000089  00000+0  18293-3 0  9990
2 56051  87.9179 287.2533 0002167  83.6573 276.4807 13.21825207129577
ONEWEB-0550             
1 56052U 23043G   25316.28241397 -.00000055  00000+0 -16412-3 0  9991
2 56052  87.9181 287.2510 0001750  89.4914 270.6420 13.21826018129574
ONEWEB-0551             
1 56053U 23043H   25316.01155538 -.00000107  00000+0 -31757-3 0  9991
2 56053  87.8954 302.5719 0002055  89.9193 270.2173 13.15549427127845
ONEWEB-0552             
1 56054U 23043J   25315.97469053  .00000982  00000+0  23453-2 0  9998
2 56054  87.9177 287.3210 0002084  91.2191 268.9182 13.21819839129532
ONEWEB-0553             
1 56055U 23043K   25316.28659262  .00000017  00000+0  11230-4 0  9998
2 56055  87.9012 271.9709 0001619  72.1211 288.0096 13.16596945130439
ONEWEB-0554             
1 56056U 23043L   25316.27394514  .00000092  00000+0  20797-3 0  9994
2 56056  87.8999 271.9913 0001639  86.1338 273.9980 13.16593853130415
ONEWEB-0555             
1 56057U 23043M   25316.15992730 -.00000180  00000+0 -50531-3 0  9995
2 56057  87.9004 271.9909 0001573  65.6609 294.4686 13.16593369130401
ONEWEB-0557             
1 56058U 23043N   25316.25019292  .00000123  00000+0  28927-3 0  9999
2 56058  87.9007 271.9866 0000605  95.4132 264.7068 13.16593113130416
ONEWEB-0558             
1 56059U 23043P   25315.96809934 -.00000362  00000+0 -90719-3 0  9992
2 56059  87.9178 287.3164 0002421  81.9778 278.1631 13.21825586129547
ONEWEB-0559             
1 56060U 23043Q   25315.88090104  .00000080  00000+0  16184-3 0  9995
2 56060  87.9179 287.3268 0002143  89.8421 270.2958 13.21824175129546
ONEWEB-0566             
1 56061U 23043R   25316.17711011  .00000047  00000+0  81521-4 0  9997
2 56061  87.9173 287.2653 0002231  85.6681 274.4708 13.21827213129565
ONEWEB-0568             
1 56062U 23043S   25316.26759686  .00000113  00000+0  26300-3 0  9995
2 56062  87.9017 271.9688 0001680  72.4104 287.7210 13.16596614130437
ONEWEB-0574             
1 56063U 23043T   25315.64063062  .00000130  00000+0  28336-3 0  9993
2 56063  87.9176 287.3608 0001712  88.0894 272.0436 13.21827097129536
